{
  "norad_id": 62902,
  "name": "COSMOS 2581",
  "history": [
    {
      "epoch": "2026-04-20T17:24:29.896992Z",
      "apogee_km": 588.8891242818781,
      "perigee_km": 576.7700814263089,
      "latitude_deg": 1.9871753218035466e-05,
      "longitude_deg": 23.18901847964176,
      "height_km": 588.7252789800779,
      "semi_major_axis_km": 6960.966602854093,
      "eccentricity": 0.0008705,
      "inclination_deg": 81.9938,
      "raan_deg": 133.1251,
      "arg_perigee_deg": 241.9511,
      "mean_anomaly_deg": 118.0829,
      "mean_motion_rev_day": 14.94852826
    },
    {
      "epoch": "2026-04-21T17:30:20.757888Z",
      "apogee_km": 588.9135226428798,
      "perigee_km": 576.7346251479921,
      "latitude_deg": -1.2382213853971759e-05,
      "longitude_deg": 19.713043478113313,
      "height_km": 589.0876846376129,
      "semi_major_axis_km": 6960.961073895435,
      "eccentricity": 0.0008748,
      "inclination_deg": 81.9937,
      "raan_deg": 132.1007,
      "arg_perigee_deg": 238.1066,
      "mean_anomaly_deg": 121.9303,
      "mean_motion_rev_day": 14.94854607
    },
    {
      "epoch": "2026-04-22T15:59:48.178176Z",
      "apogee_km": 588.937852414635,
      "perigee_km": 576.701882433078,
      "latitude_deg": 4.32011779450105e-05,
      "longitude_deg": 40.46902722684441,
      "height_km": 589.4119630539154,
      "semi_major_axis_km": 6960.956867423856,
      "eccentricity": 0.0008789,
      "inclination_deg": 81.9936,
      "raan_deg": 131.1446,
      "arg_perigee_deg": 234.5792,
      "mean_anomaly_deg": 125.4608,
      "mean_motion_rev_day": 14.94855962
    },
    {
      "epoch": "2026-04-24T17:47:52.787616Z",
      "apogee_km": 589.0018018393012,
      "perigee_km": 576.6099313481918,
      "latitude_deg": -3.6106154450183596e-05,
      "longitude_deg": 9.287440966136268,
      "height_km": 590.089600667491,
      "semi_major_axis_km": 6960.942866593747,
      "eccentricity": 0.0008901,
      "inclination_deg": 81.9933,
      "raan_deg": 129.0275,
      "arg_perigee_deg": 226.8472,
      "mean_anomaly_deg": 133.2004,
      "mean_motion_rev_day": 14.94860472
    },
    {
      "epoch": "2026-04-25T14:40:56.432928Z",
      "apogee_km": 589.0296064724753,
      "perigee_km": 576.5625753066915,
      "latitude_deg": 8.679528746484225e-05,
      "longitude_deg": 54.276779480811825,
      "height_km": 590.3518021071379,
      "semi_major_axis_km": 6960.933090889584,
      "eccentricity": 0.0008955,
      "inclination_deg": 81.9932,
      "raan_deg": 128.1397,
      "arg_perigee_deg": 223.6578,
      "mean_anomaly_deg": 136.3935,
      "mean_motion_rev_day": 14.94863621
    },
    {
      "epoch": "2026-04-26T17:59:33.298080Z",
      "apogee_km": 589.0637760786658,
      "perigee_km": 576.4965362449311,
      "latitude_deg": 2.683415213089733e-05,
      "longitude_deg": 2.3405749705608785,
      "height_km": 590.6747753005061,
      "semi_major_axis_km": 6960.917156161799,
      "eccentricity": 0.0009027,
      "inclination_deg": 81.9932,
      "raan_deg": 126.9787,
      "arg_perigee_deg": 219.4955,
      "mean_anomaly_deg": 140.5608,
      "mean_motion_rev_day": 14.94868754
    },
    {
      "epoch": "2026-04-27T16:29:00.002112Z",
      "apogee_km": 589.1065274727007,
      "perigee_km": 576.4404547430813,
      "latitude_deg": -6.813398663533419e-05,
      "longitude_deg": 23.099533260714267,
      "height_km": 590.941475679309,
      "semi_major_axis_km": 6960.91049110789,
      "eccentricity": 0.0009098,
      "inclination_deg": 81.9931,
      "raan_deg": 126.0226,
      "arg_perigee_deg": 216.0161,
      "mean_anomaly_deg": 144.0446,
      "mean_motion_rev_day": 14.94870901
    },
    {
      "epoch": "2026-04-28T18:11:13.169184Z",
      "apogee_km": 589.1475577230867,
      "perigee_km": 576.3770918218597,
      "latitude_deg": 3.893815409206914e-05,
      "longitude_deg": -4.6037254706007635,
      "height_km": 591.2142079299454,
      "semi_major_axis_km": 6960.899324772473,
      "eccentricity": 0.0009173,
      "inclination_deg": 81.9931,
      "raan_deg": 124.9298,
      "arg_perigee_deg": 212.1402,
      "mean_anomaly_deg": 147.926,
      "mean_motion_rev_day": 14.94874498
    },
    {
      "epoch": "2026-04-29T16:40:39.540576Z",
      "apogee_km": 589.1843581891744,
      "perigee_km": 576.3234161860064,
      "latitude_deg": -3.667944055288947e-06,
      "longitude_deg": 16.156529584837344,
      "height_km": 591.4342680159717,
      "semi_major_axis_km": 6960.89088718759,
      "eccentricity": 0.0009238,
      "inclination_deg": 81.993,
      "raan_deg": 123.9736,
      "arg_perigee_deg": 208.7921,
      "mean_anomaly_deg": 151.279,
      "mean_motion_rev_day": 14.94877216
    },
    {
      "epoch": "2026-04-30T16:46:29.064000Z",
      "apogee_km": 589.2306240127373,
      "perigee_km": 576.2624979386392,
      "latitude_deg": -1.3913475271081361e-05,
      "longitude_deg": 12.6860479872618,
      "height_km": 591.6598661798516,
      "semi_major_axis_km": 6960.883560975688,
      "eccentricity": 0.0009315,
      "inclination_deg": 81.993,
      "raan_deg": 122.9491,
      "arg_perigee_deg": 205.1617,
      "mean_anomaly_deg": 154.915,
      "mean_motion_rev_day": 14.94879576
    },
    {
      "epoch": "2026-05-01T16:52:18.488064Z",
      "apogee_km": 589.2888748205642,
      "perigee_km": 576.203806316963,
      "latitude_deg": 2.1076685111982218e-06,
      "longitude_deg": 9.216084362454101,
      "height_km": 591.8768509685443,
      "semi_major_axis_km": 6960.883340568763,
      "eccentricity": 0.0009399,
      "inclination_deg": 81.9931,
      "raan_deg": 121.9247,
      "arg_perigee_deg": 201.52,
      "mean_anomaly_deg": 158.5626,
      "mean_motion_rev_day": 14.94879647
    },
    {
      "epoch": "2026-05-03T18:40:20.222112Z",
      "apogee_km": 589.4006232217216,
      "perigee_km": 576.0580346424249,
      "latitude_deg": 6.5083628750775e-06,
      "longitude_deg": -21.953678299727937,
      "height_km": 592.2383682852678,
      "semi_major_axis_km": 6960.866328932073,
      "eccentricity": 0.0009584,
      "inclination_deg": 81.9931,
      "raan_deg": 119.8074,
      "arg_perigee_deg": 194.2486,
      "mean_anomaly_deg": 165.8465,
      "mean_motion_rev_day": 14.94885127
    },
    {
      "epoch": "2026-05-04T18:46:09.240960Z",
      "apogee_km": 589.4391976476663,
      "perigee_km": 576.001958179263,
      "latitude_deg": -4.222776903417285e-05,
      "longitude_deg": -25.421960338779947,
      "height_km": 592.3594928858486,
      "semi_major_axis_km": 6960.857577913464,
      "eccentricity": 0.0009652,
      "inclination_deg": 81.9932,
      "raan_deg": 118.783,
      "arg_perigee_deg": 190.9396,
      "mean_anomaly_deg": 169.1615,
      "mean_motion_rev_day": 14.94887946
    },
    {
      "epoch": "2026-05-06T17:21:23.476896Z",
      "apogee_km": 589.5281268288272,
      "perigee_km": 575.8779195433581,
      "latitude_deg": 3.6331705237440815e-05,
      "longitude_deg": -8.125245065027794,
      "height_km": 592.5492034786968,
      "semi_major_axis_km": 6960.840023186092,
      "eccentricity": 0.0009805,
      "inclination_deg": 81.9932,
      "raan_deg": 116.8023,
      "arg_perigee_deg": 184.3813,
      "mean_anomaly_deg": 175.7323,
      "mean_motion_rev_day": 14.94893601
    },
    {
      "epoch": "2026-05-07T15:50:48.813216Z",
      "apogee_km": 589.5789133532317,
      "perigee_km": 575.8145607216147,
      "latitude_deg": -7.63869072025871e-06,
      "longitude_deg": 12.639430720441805,
      "height_km": 592.6176004853622,
      "semi_major_axis_km": 6960.833737037423,
      "eccentricity": 0.0009887,
      "inclination_deg": 81.9933,
      "raan_deg": 115.8462,
      "arg_perigee_deg": 181.237,
      "mean_anomaly_deg": 178.8827,
      "mean_motion_rev_day": 14.94895626
    }
  ]
}